{"type": "FeatureCollection", "features": [ {"type": "Feature", "properties": {"norad_id": 34823, "name": "COSMOS 2251 DEB", "group": "cosmos-2251-debris", "lat": 71.12843908456091, "lon": 144.7725167077192, "alt_km": 702.4759477818961, "timestamp": "2025-12-20T07:33:51.208250+00:00", "meta": {"OBJECT_NAME": "COSMOS 2251 DEB", "OBJECT_ID": "1993-036ABN", "EPOCH": "2025-12-19T06:26:19.930272", "MEAN_MOTION": 14.54970377, "ECCENTRICITY": 0.0154255, "INCLINATION": 74.0426, "RA_OF_ASC_NODE": 89.9214, "ARG_OF_PERICENTER": 173.0866, "MEAN_ANOMALY": 187.2478, "EPHEMERIS_TYPE": 0, "CLASSIFICATION_TYPE": "U", "NORAD_CAT_ID": 34823, "ELEMENT_SET_NO": 999, "REV_AT_EPOCH": 88476, "BSTAR": 0.00043216, "MEAN_MOTION_DOT": 2.15e-05, "MEAN_MOTION_DDOT": 0}, "tle": {"line1": "1 34823U 93036ABN 25353.26828623  .00002150  00000+0  43216-3 0  9992", "line2": "2 34823  74.0426  89.9214 0154255 173.0866 187.2478 14.54970377884768"}}, "geometry": {"type": "Point", "coordinates": [144.7725167077192, 71.12843908456091]}}, {"type": "Feature", "properties": {"norad_id": 34845, "name": "COSMOS 2251 DEB", "group": "cosmos-2251-debris", "lat": 17.20315721541652, "lon": -50.87847112316777, "alt_km": 750.026679653146, "timestamp": "2025-12-20T07:33:51.208260+00:00", "meta": {"OBJECT_NAME": "COSMOS 2251 DEB", "OBJECT_ID": "1993-036ABP", "EPOCH": "2025-12-19T17:31:51.884832", "MEAN_MOTION": 14.45872035, "ECCENTRICITY": 0.00225932, "INCLINATION": 74.0244, "RA_OF_ASC_NODE": 135.3011, "ARG_OF_PERICENTER": 295.1391, "MEAN_ANOMALY": 64.7423, "EPHEMERIS_TYPE": 0, "CLASSIFICATION_TYPE": "U", "NORAD_CAT_ID": 34845, "ELEMENT_SET_NO": 999, "REV_AT_EPOCH": 87567, "BSTAR": 0.00020260782, "MEAN_MOTION_DOT": 6.95e-06, "MEAN_MOTION_DDOT": 0}, "tle": {"line1": "1 34845U 93036ABP 25353.73046163  .00000695  00000+0  20261-3 0  9996", "line2": "2 34845  74.0244 135.3011 0022593 295.1391  64.7423 14.45872035875670"}}, "geometry": {"type": "Point", "coordinates": [-50.87847112316777, 17.20315721541652]}}, {"type": "Feature", "properties": {"norad_id": 34846, "name": "COSMOS 2251 DEB", "group": "cosmos-2251-debris", "lat": 39.31220208342791, "lon": 54.047856739537444, "alt_km": 749.8268202183854, "timestamp": "2025-12-20T07:33:51.208270+00:00", "meta": {"OBJECT_NAME": "COSMOS 2251 DEB", "OBJECT_ID": "1993-036ABQ", "EPOCH": "2025-12-19T20:58:13.992384", "MEAN_MOTION": 14.47252477, "ECCENTRICITY": 0.00262078, "INCLINATION": 74.0307, "RA_OF_ASC_NODE": 248.4339, "ARG_OF_PERICENTER": 313.9402, "MEAN_ANOMALY": 45.9594, "EPHEMERIS_TYPE": 0, "CLASSIFICATION_TYPE": "U", "NORAD_CAT_ID": 34846, "ELEMENT_SET_NO": 999, "REV_AT_EPOCH": 87507, "BSTAR": 0.00049990193, "MEAN_MOTION_DOT": 1.808e-05, "MEAN_MOTION_DDOT": 0}, "tle": {"line1": "1 34846U 93036ABQ 25353.87377306  .00001808  00000+0  49990-3 0  9995", "line2": "2 34846  74.0307 248.4339 0026207 313.9402  45.9594 14.47252477875076"}}, "geometry": {"type": "Point", "coordinates": [54.047856739537444, 39.31220208342791]}}, {"type": "Feature", "properties": {"norad_id": 34852, "name": "COSMOS 2251 DEB", "group": "cosmos-2251-debris", "lat": -67.62993929638921, "lon": -155.0401551524567, "alt_km": 770.2442599150709, "timestamp": "2025-12-20T07:33:51.208280+00:00", "meta": {"OBJECT_NAME": "COSMOS 2251 DEB", "OBJECT_ID": "1993-036ABW", "EPOCH": "2025-12-18T10:47:45.598848", "MEAN_MOTION": 14.37009451, "ECCENTRICITY": 0.00164441, "INCLINATION": 74.0327, "RA_OF_ASC_NODE": 252.4705, "ARG_OF_PERICENTER": 354.4179, "MEAN_ANOMALY": 5.6788, "EPHEMERIS_TYPE": 0, "CLASSIFICATION_TYPE": "U", "NORAD_CAT_ID": 34852, "ELEMENT_SET_NO": 999, "REV_AT_EPOCH": 87616, "BSTAR": 9.6329972e-05, "MEAN_MOTION_DOT": 2.6e-06, "MEAN_MOTION_DDOT": 0}, "tle": {"line1": "1 34852U 93036ABW 25352.44983332  .00000260  00000+0  96330-4 0  9998", "line2": "2 34852  74.0327 252.4705 0016444 354.4179   5.6788 14.37009451876160"}}, "geometry": {"type": "Point", "coordinates": [-155.0401551524567, -67.62993929638921]}}, {"type": "Feature", "properties": {"norad_id": 34854, "name": "COSMOS 2251 DEB", "group": "cosmos-2251-debris", "lat": -9.181380874912664, "lon": -33.61393094550161, "alt_km": 623.264617079918, "timestamp": "2025-12-20T07:33:51.208290+00:00", "meta": {"OBJECT_NAME": "COSMOS 2251 DEB", "OBJECT_ID": "1993-036ABY", "EPOCH": "2025-12-19T03:03:42.702912", "MEAN_MOTION": 14.76684297, "ECCENTRICITY": 0.00660293, "INCLINATION": 74.0285, "RA_OF_ASC_NODE": 146.0601, "ARG_OF_PERICENTER": 256.446, "MEAN_ANOMALY": 102.9353, "EPHEMERIS_TYPE": 0, "CLASSIFICATION_TYPE": "U", "NORAD_CAT_ID": 34854, "ELEMENT_SET_NO": 999, "REV_AT_EPOCH": 71976, "BSTAR": 0.00056593375, "MEAN_MOTION_DOT": 4.07e-05, "MEAN_MOTION_DDOT": 0}, "tle": {"line1": "1 34854U 93036ABY 25353.12757758  .00004070  00000+0  56593-3 0  9996", "line2": "2 34854  74.0285 146.0601 0066029 256.4460 102.9353 14.76684297719767"}}, "geometry": {"type": "Point", "coordinates": [-33.61393094550161, -9.181380874912664]}}, {"type": "Feature", "properties": {"norad_id": 34856, "name": "COSMOS 2251 DEB", "group": "cosmos-2251-debris", "lat": -9.058039730680482, "lon": 66.6460959720847, "alt_km": 569.0084629468338, "timestamp": "2025-12-20T07:33:51.208300+00:00", "meta": {"OBJECT_NAME": "COSMOS 2251 DEB", "OBJECT_ID": "1993-036ACA", "EPOCH": "2025-12-19T06:24:00.092736", "MEAN_MOTION": 15.06389388, "ECCENTRICITY": 0.0032064, "INCLINATION": 73.9981, "RA_OF_ASC_NODE": 71.4246, "ARG_OF_PERICENTER": 208.487, "MEAN_ANOMALY": 218.2947, "EPHEMERIS_TYPE": 0, "CLASSIFICATION_TYPE": "U", "NORAD_CAT_ID": 34856, "ELEMENT_SET_NO": 999, "REV_AT_EPOCH": 89210, "BSTAR": 0.001117, "MEAN_MOTION_DOT": 0.00016644, "MEAN_MOTION_DDOT": 0}, "tle": {"line1": "1 34856U 93036ACA 25353.26666774  .00016644  00000+0  11170-2 0  9991", "line2": "2 34856  73.9981  71.4246 0032064 208.4870 218.2947 15.06389388892107"}}, "geometry": {"type": "Point", "coordinates": [66.6460959720847, -9.058039730680482]}}, {"type": "Feature", "properties": {"norad_id": 34857, "name": "COSMOS 2251 DEB", "group": "cosmos-2251-debris", "lat": 28.66905157743335, "lon": -96.63610418934246, "alt_km": 675.3203953092898, "timestamp": "2025-12-20T07:33:51.208310+00:00", "meta": {"OBJECT_NAME": "COSMOS 2251 DEB", "OBJECT_ID": "1993-036ACB", "EPOCH": "2025-12-19T06:18:57.031776", "MEAN_MOTION": 14.58954482, "ECCENTRICITY": 0.0065606, "INCLINATION": 74.0163, "RA_OF_ASC_NODE": 94.3864, "ARG_OF_PERICENTER": 217.6758, "MEAN_ANOMALY": 169.7883, "EPHEMERIS_TYPE": 0, "CLASSIFICATION_TYPE": "U", "NORAD_CAT_ID": 34857, "ELEMENT_SET_NO": 999, "REV_AT_EPOCH": 87996, "BSTAR": 0.00074617, "MEAN_MOTION_DOT": 3.576e-05, "MEAN_MOTION_DDOT": 0}, "tle": {"line1": "1 34857U 93036ACB 25353.26316009  .00003576  00000+0  74617-3 0  9991", "line2": "2 34857  74.0163  94.3864 0065606 217.6758 169.7883 14.58954482879964"}}, "geometry": {"type": "Point", "coordinates": [-96.63610418934246, 28.66905157743335]}}, {"type": "Feature", "properties": {"norad_id": 34859, "name": "COSMOS 2251 DEB", "group": "cosmos-2251-debris", "lat": -19.72520939867604, "lon": 149.77913574836208, "alt_km": 524.375371491531, "timestamp": "2025-12-20T07:33:51.208320+00:00", "meta": {"OBJECT_NAME": "COSMOS 2251 DEB", "OBJECT_ID": "1993-036ACD", "EPOCH": "2025-12-19T09:10:24.100032", "MEAN_MOTION": 15.15762509, "ECCENTRICITY": 0.0001677, "INCLINATION": 74.028, "RA_OF_ASC_NODE": 325.8279, "ARG_OF_PERICENTER": 15.0861, "MEAN_ANOMALY": 136.4937, "EPHEMERIS_TYPE": 0, "CLASSIFICATION_TYPE": "U", "NORAD_CAT_ID": 34859, "ELEMENT_SET_NO": 999, "REV_AT_EPOCH": 88459, "BSTAR": 0.0029178, "MEAN_MOTION_DOT": 0.00056082, "MEAN_MOTION_DDOT": 0}, "tle": {"line1": "1 34859U 93036ACD 25353.38222338  .00056082  00000+0  29178-2 0  9998", "line2": "2 34859  74.0280 325.8279 0001677  15.0861 136.4937 15.15762509884598"}}, "geometry": {"type": "Point", "coordinates": [149.77913574836208, -19.72520939867604]}}, {"type": "Feature", "properties": {"norad_id": 34861, "name": "COSMOS 2251 DEB", "group": "cosmos-2251-debris", "lat": 51.70663171983308, "lon": -165.90885655130094, "alt_km": 553.4279118396689, "timestamp": "2025-12-20T07:33:51.208330+00:00", "meta": {"OBJECT_NAME": "COSMOS 2251 DEB", "OBJECT_ID": "1993-036ACF", "EPOCH": "2025-12-18T14:08:43.600128", "MEAN_MOTION": 15.02920509, "ECCENTRICITY": 0.00076164, "INCLINATION": 74.0194, "RA_OF_ASC_NODE": 38.8984, "ARG_OF_PERICENTER": 29.0921, "MEAN_ANOMALY": 122.3778, "EPHEMERIS_TYPE": 0, "CLASSIFICATION_TYPE": "U", "NORAD_CAT_ID": 34861, "ELEMENT_SET_NO": 999, "REV_AT_EPOCH": 88180, "BSTAR": 0.0018473696, "MEAN_MOTION_DOT": 0.00024875, "MEAN_MOTION_DDOT": 0}, "tle": {"line1": "1 34861U 93036ACF 25352.58939352  .00024875  00000+0  18474-2 0  9995", "line2": "2 34861  74.0194  38.8984 0007616  29.0921 122.3778 15.02920509881800"}}, "geometry": {"type": "Point", "coordinates": [-165.90885655130094, 51.70663171983308]}}, {"type": "Feature", "properties": {"norad_id": 34874, "name": "COSMOS 2251 DEB", "group": "cosmos-2251-debris", "lat": 60.99784909830228, "lon": 90.93392061310591, "alt_km": 729.7505622617837, "timestamp": "2025-12-20T07:33:51.208356+00:00", "meta": {"OBJECT_NAME": "COSMOS 2251 DEB", "OBJECT_ID": "1993-036ACM", "EPOCH": "2025-12-19T15:14:26.431296", "MEAN_MOTION": 14.36339936, "ECCENTRICITY": 0.0050622, "INCLINATION": 74.0394, "RA_OF_ASC_NODE": 61.1016, "ARG_OF_PERICENTER": 84.2082, "MEAN_ANOMALY": 65.9606, "EPHEMERIS_TYPE": 0, "CLASSIFICATION_TYPE": "U", "NORAD_CAT_ID": 34874, "ELEMENT_SET_NO": 999, "REV_AT_EPOCH": 87143, "BSTAR": 0.00053501, "MEAN_MOTION_DOT": 1.563e-05, "MEAN_MOTION_DDOT": 0}, "tle": {"line1": "1 34874U 93036ACM 25353.63502814  .00001563  00000+0  53501-3 0  9995", "line2": "2 34874  74.0394  61.1016 0050622  84.2082  65.9606 14.36339936871431"}}, "geometry": {"type": "Point", "coordinates": [90.93392061310591, 60.99784909830228]}}]}